[{"OBJECT_NAME":"STARLINK-11573 [DTC]","OBJECT_ID":"2025-031J","EPOCH":"2026-03-08T22:44:09.397536","MEAN_MOTION":15.70769325,"ECCENTRICITY":0.00012521,"INCLINATION":42.9993,"RA_OF_ASC_NODE":6.113,"ARG_OF_PERICENTER":268.2091,"MEAN_ANOMALY":91.8633,"EPHEMERIS_TYPE":0,"CLASSIFICATION_TYPE":"U","NORAD_CAT_ID":62989,"ELEMENT_SET_NO":999,"REV_AT_EPOCH":6259,"BSTAR":0.0028212771,"MEAN_MOTION_DOT":0.0037738,"MEAN_MOTION_DDOT":0},{"OBJECT_NAME":"FENGYUN 1C DEB","OBJECT_ID":"1999-025BHM","EPOCH":"2026-03-07T15:41:41.908992","MEAN_MOTION":15.52424712,"ECCENTRICITY":0.00874412,"INCLINATION":97.8053,"RA_OF_ASC_NODE":37.5391,"ARG_OF_PERICENTER":68.6008,"MEAN_ANOMALY":292.4545,"EPHEMERIS_TYPE":0,"CLASSIFICATION_TYPE":"U","NORAD_CAT_ID":31159,"ELEMENT_SET_NO":999,"REV_AT_EPOCH":844,"BSTAR":0.0020496514,"MEAN_MOTION_DOT":0.00149592,"MEAN_MOTION_DDOT":0}]
